NORAD_CAT_ID,OBJECT_NAME,OBJECT_TYPE,EPOCH,MEAN_MOTION,ECCENTRICITY,INCLINATION,RA_OF_ASC_NODE,ARG_OF_PERICENTER,MEAN_ANOMALY,BSTAR,MEAN_MOTION_DOT,MEAN_MOTION_DDOT,TLE_LINE0,TLE_LINE1,TLE_LINE2,SEMIMAJOR_AXIS,PERIOD,APOGEE,PERIGEE,DECAYED
48148,STARLINK-2491,PAYLOAD,2021-09-22 11:08:13,15.06385223,7.97e-05,53.0566,285.4947,84.3315,275.7765,8.444299999999999e-05,9.76e-06,0.0,0 STARLINK-2491,1 48148U 21027BJ  21265.46404598  .00000976  00000-0  84443-4 0  9992,2 48148  53.0566 285.4947 0000797  84.3315 275.7765 15.06385223 26842,6925.394,95.59299999999999,547.811,546.707,0.0
48148,STARLINK-2491,PAYLOAD,2021-09-23 01:28:05,15.06388194,7.92e-05,53.0567,282.8141,83.1754,276.9325,9.1374e-05,1.0800000000000003e-05,0.0,0 STARLINK-2491,1 48148U 21027BJ  21266.06117003  .00001080  00000-0  91374-4 0  9999,2 48148  53.0567 282.8141 0000792  83.1754 276.9325 15.06388194 26541,6925.385,95.59299999999999,547.798,546.701,0.0
48148,STARLINK-2491,PAYLOAD,2021-09-23 11:01:19,15.06391636,7.96e-05,53.0566,281.0274,79.0292,281.0787,0.00010927,1.346e-05,0.0,0 STARLINK-2491,1 48148U 21027BJ  21266.45925180  .00001346  00000-0  10927-3 0  9994,2 48148  53.0566 281.0274 0000796  79.0292 281.0787 15.06391636 26996,6925.374,95.59299999999999,547.79,546.688,0.0
48148,STARLINK-2491,PAYLOAD,2021-09-24 10:54:24,15.06397539,8.070000000000001e-05,53.0566,276.5599,75.7815,284.3263,0.00011603,1.447e-05,0.0,0 STARLINK-2491,1 48148U 21027BJ  21267.45445425  .00001447  00000-0  11603-3 0  9998,2 48148  53.0566 276.5599 0000807  75.7815 284.3263 15.06397539 27143,6925.356,95.59200000000001,547.78,546.6619999999998,0.0
48148,STARLINK-2491,PAYLOAD,2021-09-25 17:09:39,15.06408846,8.48e-05,53.0568,270.9012,74.6788,285.4295,0.00016117,2.121e-05,0.0,0 STARLINK-2491,1 48148U 21027BJ  21268.71503605  .00002121  00000-0  16117-3 0  9998,2 48148  53.0568 270.9012 0000848  74.6788 285.4295 15.06408846 26943,6925.321,95.59200000000001,547.774,546.599,0.0
48148,STARLINK-2491,PAYLOAD,2021-09-26 07:29:29,15.06413994,8.690000000000001e-05,53.0567,268.2205,73.6196,286.4888,0.00017275,2.294e-05,0.0,0 STARLINK-2491,1 48148U 21027BJ  21269.31215114  .00002294  00000-0  17275-3 0  9997,2 48148  53.0567 268.2205 0000869  73.6196 286.4888 15.06413994 27424,6925.306,95.59100000000001,547.7719999999998,546.569,0.0
48148,STARLINK-2491,PAYLOAD,2021-09-26 17:02:44,15.06403625,8.52e-05,53.0561,266.4334,71.4263,288.6818,5.9074e-05,5.99e-06,0.0,0 STARLINK-2491,1 48148U 21027BJ  21269.71023919  .00000599  00000-0  59074-4 0  9991,2 48148  53.0561 266.4334 0000852  71.4263 288.6818 15.06403625 27094,6925.3369999999995,95.59200000000001,547.7919999999998,546.612,0.0
48148,STARLINK-2491,PAYLOAD,2021-09-27 08:58:08,15.06404372,9.690000000000001e-05,53.0563,263.4545,69.0498,291.0595,3.4709e-05,2.36e-06,0.0,0 STARLINK-2491,1 48148U 21027BJ  21270.37370531  .00000236  00000-0  34709-4 0  9996,2 48148  53.0563 263.4545 0000969  69.0498 291.0595 15.06404372 27583,6925.335,95.59200000000001,547.871,546.529,0.0
48148,STARLINK-2491,PAYLOAD,2021-09-27 16:55:49,15.06402147,0.0001034,53.0567,261.9666,70.4061,289.704,-3.9293e-06,-3.4e-06,0.0,0 STARLINK-2491,1 48148U 21027BJ  21270.70543976 -.00000340  00000-0 -39293-5 0  9990,2 48148  53.0567 261.9666 0001034  70.4061 289.7040 15.06402147 27633,6925.342,95.59200000000001,547.923,546.491,0.0
48148,STARLINK-2491,PAYLOAD,2021-09-28 02:29:03,15.06406974,0.00010120000000000001,53.0565,260.1792,68.6154,291.4943,2.2648e-05,5.6e-07,0.0,0 STARLINK-2491,1 48148U 21027BJ  21271.10351615  .00000056  00000-0  22648-4 0  9999,2 48148  53.0565 260.1792 0001012  68.6154 291.4943 15.06406974 27308,6925.3269999999975,95.59200000000001,547.893,546.491,0.0
48148,STARLINK-2491,PAYLOAD,2021-09-28 13:37:50,15.06405753,0.000105,53.0564,258.0941,69.7932,290.317,0.00011057,1.366e-05,0.0,0 STARLINK-2491,1 48148U 21027BJ  21271.56794100  .00001366  00000-0  11057-3 0  9995,2 48148  53.0564 258.0941 0001050  69.7932 290.3170 15.06405753 27761,6925.331,95.59200000000001,547.923,546.469,0.0
48148,STARLINK-2491,PAYLOAD,2021-09-29 08:44:18,15.06408471,0.0001208,53.0564,254.5207,65.1049,295.0066,0.00017182,2.279e-05,0.0,0 STARLINK-2491,1 48148U 21027BJ  21272.36409840  .00002279  00000-0  17182-3 0  9997,2 48148  53.0564 254.5207 0001208  65.1049 295.0066 15.06408471 27497,6925.323,95.59200000000001,548.024,546.351,0.0
48148,STARLINK-2491,PAYLOAD,2021-09-30 02:15:15,15.06396352,0.0001233,53.0565,251.2446,62.3497,297.7617,1.1752e-05,-1.06e-06,0.0,0 STARLINK-2491,1 48148U 21027BJ  21273.09392475 -.00000106  00000-0  11752-4 0  9999,2 48148  53.0565 251.2446 0001233  62.3497 297.7617 15.06396352 27609,6925.36,95.59200000000001,548.0790000000002,546.371,0.0
48148,STARLINK-2491,PAYLOAD,2021-09-30 08:37:24,15.064019400000001,0.0001186,53.0565,250.0527,65.1905,294.9207,5.1135e-05,4.8e-06,0.0,0 STARLINK-2491,1 48148U 21027BJ  21273.35930749  .00000480  00000-0  51135-4 0  9993,2 48148  53.0565 250.0527 0001186  65.1905 294.9207 15.06401940 28030,6925.343000000003,95.59200000000001,548.029,546.386,0.0
48148,STARLINK-2491,PAYLOAD,2021-10-01 02:08:19,15.06421267,0.0001601,53.0567,246.7768,68.0129,292.103,-0.00017514,-2.891e-05,0.0,0 STARLINK-2491,1 48148U 21027BJ  21274.08911379 -.00002891  00000-0 -17514-3 0  9994,2 48148  53.0567 246.7768 0001601  68.0129 292.1030 15.06421267 27759,6925.283,95.59100000000001,548.257,546.04,0.0
48148,STARLINK-2491,PAYLOAD,2021-10-01 06:54:56,15.06406316,0.0001304,53.0565,245.8833,71.9976,288.1155,9.235600000000001e-05,1.095e-05,0.0,0 STARLINK-2491,1 48148U 21027BJ  21274.28815658  .00001095  00000-0  92356-4 0  9990,2 48148  53.0565 245.8833 0001304  71.9976 288.1155 15.06406316 27787,6925.329000000002,95.59200000000001,548.097,546.2909999999998,0.0
48148,STARLINK-2491,PAYLOAD,2021-10-01 14:52:39,15.06391437,0.0001325,53.0561,244.3936,67.2971,292.8158,5.978e-05,6.09e-06,0.0,0 STARLINK-2491,1 48148U 21027BJ  21274.61990113  .00000609  00000-0  59780-4 0  9991,2 48148  53.0561 244.3936 0001325  67.2971 292.8158 15.06391437 27835,6925.375,95.59299999999999,548.1569999999998,546.322,0.0
48148,STARLINK-2491,PAYLOAD,2021-10-01 21:14:48,15.06392446,0.0001326,53.056000000000004,243.2022,67.3889,292.724,4.8335e-05,4.38e-06,0.0,0 STARLINK-2491,1 48148U 21027BJ  21274.88528898  .00000438  00000-0  48335-4 0  9991,2 48148  53.0560 243.2022 0001326  67.3889 292.7240 15.06392446 28268,6925.3719999999985,95.59299999999999,548.155,546.318,0.0
48148,STARLINK-2491,PAYLOAD,2021-10-02 05:12:30,15.06394613,0.0001299,53.0561,241.7132,66.6482,293.4644,2.1269000000000006e-05,3.5e-07,0.0,0 STARLINK-2491,1 48148U 21027BJ  21275.21702284  .00000035  00000-0  21269-4 0  9992,2 48148  53.0561 241.7132 0001299  66.6482 293.4644 15.06394613 28314,6925.365,95.59200000000001,548.13,546.33,0.0
48148,STARLINK-2491,PAYLOAD,2021-10-02 14:45:44,15.06398272,0.000132,53.0562,239.9264,66.9465,293.1663,4.252600000000001e-05,3.52e-06,0.0,0 STARLINK-2491,1 48148U 21027BJ  21275.61510130  .00000352  00000-0  42526-4 0  9994,2 48148  53.0562 239.9264 0001320  66.9465 293.1663 15.06398272 28378,6925.354,95.59200000000001,548.133,546.305,0.0
48148,STARLINK-2491,PAYLOAD,2021-10-03 03:30:03,15.06404249,0.0001336,53.0562,237.5436,66.4788,293.6341,3.4896e-05,2.38e-06,0.0,0 STARLINK-2491,1 48148U 21027BJ  21276.14587176  .00000238  00000-0  34896-4 0  9991,2 48148  53.0562 237.5436 0001336  66.4788 293.6341 15.06404249 28069,6925.3359999999975,95.59200000000001,548.126,546.275,0.0
48148,STARLINK-2491,PAYLOAD,2021-10-03 06:41:08,15.06400169,0.0001357,53.0565,236.9482,67.3623,292.751,1.3626e-05,-7.8e-07,0.0,0 STARLINK-2491,1 48148U 21027BJ  21276.27856792 -.00000078  00000-0  13626-4 0  9999,2 48148  53.0565 236.9482 0001357  67.3623 292.7510 15.06400169 28477,6925.348000000001,95.59200000000001,548.153,546.273,0.0
48148,STARLINK-2491,PAYLOAD,2021-10-03 21:01:00,15.06386738,0.0001375,53.0566,234.268,66.59100000000001,293.5223,5.7678e-08,-2.81e-06,0.0,0 STARLINK-2491,1 48148U 21027BJ  21276.87570013 -.00000281  00000-0  57678-7 0  9998,2 48148  53.0566 234.2680 0001375  66.5910 293.5223 15.06386738 28564,6925.389,95.59299999999999,548.206,546.302,0.0
48148,STARLINK-2491,PAYLOAD,2021-10-04 01:47:37,15.06386521,0.0001383,53.0566,233.3745,66.6135,293.4999,-4.3405e-06,-3.46e-06,0.0,0 STARLINK-2491,1 48148U 21027BJ  21277.07474206 -.00000346  00000-0 -43405-5 0  9992,2 48148  53.0566 233.3745 0001383  66.6135 293.4999 15.06386521 28205,6925.39,95.59299999999999,548.2130000000002,546.297,0.0
48148,STARLINK-2491,PAYLOAD,2021-10-04 03:23:09,15.06388338,0.0001395,53.0566,233.0767,66.4318,293.6818,1.0389000000000003e-05,-1.27e-06,0.0,0 STARLINK-2491,1 48148U 21027BJ  21277.14108793 -.00000127  00000-0  10389-4 0  9995,2 48148  53.0566 233.0767 0001395  66.4318 293.6818 15.06388338 28604,6925.384,95.59299999999999,548.215,546.283,0.0
48148,STARLINK-2491,PAYLOAD,2021-10-04 14:31:56,15.06394133,0.0001426,53.0565,230.99200000000002,66.2378,293.876,2.5511e-05,9.8e-07,0.0,0 STARLINK-2491,1 48148U 21027BJ  21277.60551336  .00000098  00000-0  25511-4 0  9990,2 48148  53.0565 230.9920 0001426  66.2378 293.8760 15.06394133 28281,6925.3669999999975,95.59299999999999,548.219,546.244,0.0
48148,STARLINK-2491,PAYLOAD,2021-10-04 20:54:05,15.06397638,0.0001449,53.0564,229.8002,65.9586,294.1554,4.298600000000001e-05,3.59e-06,0.0,0 STARLINK-2491,1 48148U 21027BJ  21277.87089833  .00000359  00000-0  42986-4 0  9992,2 48148  53.0564 229.8002 0001449  65.9586 294.1554 15.06397638 28716,6925.356,95.59200000000001,548.224,546.217,0.0
48148,STARLINK-2491,PAYLOAD,2021-10-05 03:16:15,15.06398808,0.000144,53.0566,228.6093,65.2329,294.8809,2.3970999999999998e-05,7.6e-07,0.0,0 STARLINK-2491,1 48148U 21027BJ  21278.13628542  .00000076  00000-0  23971-4 0  9997,2 48148  53.0566 228.6093 0001440  65.2329 294.8809 15.06398808 28758,6925.352,95.59200000000001,548.214,546.22,0.0
